QIANFAN-33              
1 61566U 24185Q   26198.91640376  .00000157  00000+0  10348-3 0  9997
2 61566  88.9792  54.5970 0008369  23.8441 336.3122 13.96720580 99477
QIANFAN-34              
1 61567U 24185R   26198.91794533  .00000081  00000+0  43911-4 0  9992
2 61567  88.9769  53.8731 0006449  24.1143 336.0338 14.02484254 99793
QIANFAN-35              
1 61568U 24185S   26198.89987796  .00000311  00000+0  11867-3 0  9995
2 61568  88.9797  51.3919 0004300 306.1796  53.9000 14.28299606101177
QIANFAN-36              
1 61569U 24185T   26198.89415159  .00000092  00000+0  11456-3 0  9995
2 61569  88.9770  58.4174 0007830 121.1249 239.0674 13.55640760 97346
QIANFAN-37              
1 62238U 24232B   26198.92369586  .00000018  00000+0  95525-5 0  9997
2 62238  89.0069  19.4964 0002076 108.3796 251.7581 13.51011352128492
QIANFAN-38              
1 62239U 24232C   26198.94837572  .00000023  00000+0  16721-4 0  9991
2 62239  89.0076  19.4245 0012577 290.5928  69.3874 13.51022193128551
QIANFAN-39              
1 62240U 24232D   26198.89501669  .00000071  00000+0  23733-4 0  9996
2 62240  89.0064  12.5679 0018523  88.0552 272.2763 14.25532730132322
QIANFAN-40              
1 62241U 24232E   26198.90720367  .00000025  00000+0  20977-4 0  9993
2 62241  89.0103  19.0737 0011736 300.2276  59.7712 13.51009514128914
QIANFAN-41              
1 62242U 24232F   26198.91541652  .00000016  00000+0  57638-5 0  9998
2 62242  89.0074  19.3753 0011931 286.2857  73.6981 13.51012395128574
QIANFAN-42              
1 62243U 24232G   26198.89092986  .00000069  00000+0  23233-4 0  9998
2 62243  89.0062  12.6477 0017368  94.0333 266.2845 14.24621229132280
QIANFAN-43              
1 62244U 24232H   26198.91129748  .00000022  00000+0  15290-4 0  9992
2 62244  89.0078  19.4506 0013537 292.0040  67.9673 13.51011809 97185
QIANFAN-44              
1 62245U 24232J   26198.89889692  .00000015  00000+0  47848-5 0  9998
2 62245  89.0076  19.2590 0011708 289.0192  70.9691 13.51013624128655
QIANFAN-45              
1 62246U 24232K   26198.94014139  .00000015  00000+0  42350-5 0  9994
2 62246  89.0080  19.4092 0012376 288.3042  71.6762 13.51011065128584
QIANFAN-46              
1 62247U 24232L   26198.89073134  .00000010  00000+0 -27362-5 0  9991
2 62247  89.0076  19.4742 0012500 294.8778  65.1074 13.51011700128534
QIANFAN-47              
1 62248U 24232M   26198.89486229  .00000033  00000+0  32579-4 0  9994
2 62248  89.0072  19.3980 0012900 293.7429  66.2369 13.51011278128561
QIANFAN-48              
1 62249U 24232N   26198.93173594  .00000032  00000+0  32029-4 0  9997
2 62249  89.0076  19.4046 0015202 296.0900  63.8686 13.51015918128579
