{"fetched_at":"2026-07-18T06:27:49.000Z","source":"https://celestrak.org/NORAD/elements/gp.php?GROUP=qianfan&FORMAT=JSON","constellation":"qianfan","records":[{"OBJECT_NAME":"QIANFAN-33","OBJECT_ID":"2024-185Q","EPOCH":"2026-07-17T21:59:37.284864","CLASSIFICATION_TYPE":"U","MEAN_MOTION":13.9672058,"ECCENTRICITY":0.00083697,"INCLINATION":88.9792,"RA_OF_ASC_NODE":54.597,"ARG_OF_PERICENTER":23.8441,"MEAN_ANOMALY":336.3122,"EPHEMERIS_TYPE":0,"NORAD_CAT_ID":61566,"ELEMENT_SET_NO":999,"REV_AT_EPOCH":9947,"BSTAR":0.00010347535,"MEAN_MOTION_DOT":0.00000157,"MEAN_MOTION_DDOT":0},{"OBJECT_NAME":"QIANFAN-34","OBJECT_ID":"2024-185R","EPOCH":"2026-07-17T22:01:50.476512","CLASSIFICATION_TYPE":"U","MEAN_MOTION":14.02484254,"ECCENTRICITY":0.0006449,"INCLINATION":88.9769,"RA_OF_ASC_NODE":53.8731,"ARG_OF_PERICENTER":24.1143,"MEAN_ANOMALY":336.0338,"EPHEMERIS_TYPE":0,"NORAD_CAT_ID":61567,"ELEMENT_SET_NO":999,"REV_AT_EPOCH":9979,"BSTAR":0.000043910787,"MEAN_MOTION_DOT":8.1e-7,"MEAN_MOTION_DDOT":0},{"OBJECT_NAME":"QIANFAN-35","OBJECT_ID":"2024-185S","EPOCH":"2026-07-17T21:35:49.455744","CLASSIFICATION_TYPE":"U","MEAN_MOTION":14.28299606,"ECCENTRICITY":0.00043005,"INCLINATION":88.9797,"RA_OF_ASC_NODE":51.3919,"ARG_OF_PERICENTER":306.1796,"MEAN_ANOMALY":53.9,"EPHEMERIS_TYPE":0,"NORAD_CAT_ID":61568,"ELEMENT_SET_NO":999,"REV_AT_EPOCH":10117,"BSTAR":0.00011866987,"MEAN_MOTION_DOT":0.00000311,"MEAN_MOTION_DDOT":0},{"OBJECT_NAME":"QIANFAN-36","OBJECT_ID":"2024-185T","EPOCH":"2026-07-17T21:27:34.697376","CLASSIFICATION_TYPE":"U","MEAN_MOTION":13.5564076,"ECCENTRICITY":0.00078302,"INCLINATION":88.977,"RA_OF_ASC_NODE":58.4174,"ARG_OF_PERICENTER":121.1249,"MEAN_ANOMALY":239.0674,"EPHEMERIS_TYPE":0,"NORAD_CAT_ID":61569,"ELEMENT_SET_NO":999,"REV_AT_EPOCH":9734,"BSTAR":0.00011456487,"MEAN_MOTION_DOT":9.2e-7,"MEAN_MOTION_DDOT":0},{"OBJECT_NAME":"QIANFAN-37","OBJECT_ID":"2024-232B","EPOCH":"2026-07-17T22:10:07.322304","CLASSIFICATION_TYPE":"U","MEAN_MOTION":13.51011352,"ECCENTRICITY":0.00020765,"INCLINATION":89.0069,"RA_OF_ASC_NODE":19.4964,"ARG_OF_PERICENTER":108.3796,"MEAN_ANOMALY":251.7581,"EPHEMERIS_TYPE":0,"NORAD_CAT_ID":62238,"ELEMENT_SET_NO":999,"REV_AT_EPOCH":12849,"BSTAR":0.00000955248,"MEAN_MOTION_DOT":1.8e-7,"MEAN_MOTION_DDOT":0},{"OBJECT_NAME":"QIANFAN-38","OBJECT_ID":"2024-232C","EPOCH":"2026-07-17T22:45:39.662208","CLASSIFICATION_TYPE":"U","MEAN_MOTION":13.51022193,"ECCENTRICITY":0.00125779,"INCLINATION":89.0076,"RA_OF_ASC_NODE":19.4245,"ARG_OF_PERICENTER":290.5928,"MEAN_ANOMALY":69.3874,"EPHEMERIS_TYPE":0,"NORAD_CAT_ID":62239,"ELEMENT_SET_NO":999,"REV_AT_EPOCH":12855,"BSTAR":0.0000167212,"MEAN_MOTION_DOT":2.3e-7,"MEAN_MOTION_DDOT":0},{"OBJECT_NAME":"QIANFAN-39","OBJECT_ID":"2024-232D","EPOCH":"2026-07-17T21:28:49.442016","CLASSIFICATION_TYPE":"U","MEAN_MOTION":14.2553273,"ECCENTRICITY":0.0018523,"INCLINATION":89.0064,"RA_OF_ASC_NODE":12.5679,"ARG_OF_PERICENTER":88.0552,"MEAN_ANOMALY":272.2763,"EPHEMERIS_TYPE":0,"NORAD_CAT_ID":62240,"ELEMENT_SET_NO":999,"REV_AT_EPOCH":13232,"BSTAR":0.000023733426,"MEAN_MOTION_DOT":7.1e-7,"MEAN_MOTION_DDOT":0},{"OBJECT_NAME":"QIANFAN-40","OBJECT_ID":"2024-232E","EPOCH":"2026-07-17T21:46:22.397088","CLASSIFICATION_TYPE":"U","MEAN_MOTION":13.51009514,"ECCENTRICITY":0.00117362,"INCLINATION":89.0103,"RA_OF_ASC_NODE":19.0737,"ARG_OF_PERICENTER":300.2276,"MEAN_ANOMALY":59.7712,"EPHEMERIS_TYPE":0,"NORAD_CAT_ID":62241,"ELEMENT_SET_NO":999,"REV_AT_EPOCH":12891,"BSTAR":0.000020976726,"MEAN_MOTION_DOT":2.5e-7,"MEAN_MOTION_DDOT":0},{"OBJECT_NAME":"QIANFAN-41","OBJECT_ID":"2024-232F","EPOCH":"2026-07-17T21:58:11.987328","CLASSIFICATION_TYPE":"U","MEAN_MOTION":13.51012395,"ECCENTRICITY":0.00119317,"INCLINATION":89.0074,"RA_OF_ASC_NODE":19.3753,"ARG_OF_PERICENTER":286.2857,"MEAN_ANOMALY":73.6981,"EPHEMERIS_TYPE":0,"NORAD_CAT_ID":62242,"ELEMENT_SET_NO":999,"REV_AT_EPOCH":12857,"BSTAR":0.000005763791,"MEAN_MOTION_DOT":1.6e-7,"MEAN_MOTION_DDOT":0},{"OBJECT_NAME":"QIANFAN-42","OBJECT_ID":"2024-232G","EPOCH":"2026-07-17T21:22:56.339904","CLASSIFICATION_TYPE":"U","MEAN_MOTION":14.24621229,"ECCENTRICITY":0.00173688,"INCLINATION":89.0062,"RA_OF_ASC_NODE":12.6477,"ARG_OF_PERICENTER":94.0333,"MEAN_ANOMALY":266.2845,"EPHEMERIS_TYPE":0,"NORAD_CAT_ID":62243,"ELEMENT_SET_NO":999,"REV_AT_EPOCH":13228,"BSTAR":0.000023232907,"MEAN_MOTION_DOT":6.9e-7,"MEAN_MOTION_DDOT":0},{"OBJECT_NAME":"QIANFAN-43","OBJECT_ID":"2024-232H","EPOCH":"2026-07-17T21:52:16.102272","CLASSIFICATION_TYPE":"U","MEAN_MOTION":13.51011809,"ECCENTRICITY":0.00135375,"INCLINATION":89.0078,"RA_OF_ASC_NODE":19.4506,"ARG_OF_PERICENTER":292.004,"MEAN_ANOMALY":67.9673,"EPHEMERIS_TYPE":0,"NORAD_CAT_ID":62244,"ELEMENT_SET_NO":999,"REV_AT_EPOCH":9718,"BSTAR":0.0000152896,"MEAN_MOTION_DOT":2.2e-7,"MEAN_MOTION_DDOT":0},{"OBJECT_NAME":"QIANFAN-44","OBJECT_ID":"2024-232J","EPOCH":"2026-07-17T21:34:24.693888","CLASSIFICATION_TYPE":"U","MEAN_MOTION":13.51013624,"ECCENTRICITY":0.00117084,"INCLINATION":89.0076,"RA_OF_ASC_NODE":19.259,"ARG_OF_PERICENTER":289.0192,"MEAN_ANOMALY":70.9691,"EPHEMERIS_TYPE":0,"NORAD_CAT_ID":62245,"ELEMENT_SET_NO":999,"REV_AT_EPOCH":12865,"BSTAR":0.000004784782,"MEAN_MOTION_DOT":1.5e-7,"MEAN_MOTION_DDOT":0},{"OBJECT_NAME":"QIANFAN-45","OBJECT_ID":"2024-232K","EPOCH":"2026-07-17T22:33:48.216096","CLASSIFICATION_TYPE":"U","MEAN_MOTION":13.51011065,"ECCENTRICITY":0.00123767,"INCLINATION":89.008,"RA_OF_ASC_NODE":19.4092,"ARG_OF_PERICENTER":288.3042,"MEAN_ANOMALY":71.6762,"EPHEMERIS_TYPE":0,"NORAD_CAT_ID":62246,"ELEMENT_SET_NO":999,"REV_AT_EPOCH":12858,"BSTAR":0.000004235039,"MEAN_MOTION_DOT":1.5e-7,"MEAN_MOTION_DDOT":0},{"OBJECT_NAME":"QIANFAN-46","OBJECT_ID":"2024-232L","EPOCH":"2026-07-17T21:22:39.187776","CLASSIFICATION_TYPE":"U","MEAN_MOTION":13.510117,"ECCENTRICITY":0.00125006,"INCLINATION":89.0076,"RA_OF_ASC_NODE":19.4742,"ARG_OF_PERICENTER":294.8778,"MEAN_ANOMALY":65.1074,"EPHEMERIS_TYPE":0,"NORAD_CAT_ID":62247,"ELEMENT_SET_NO":999,"REV_AT_EPOCH":12853,"BSTAR":-0.000002736223,"MEAN_MOTION_DOT":1e-7,"MEAN_MOTION_DDOT":0},{"OBJECT_NAME":"QIANFAN-47","OBJECT_ID":"2024-232M","EPOCH":"2026-07-17T21:28:36.101856","CLASSIFICATION_TYPE":"U","MEAN_MOTION":13.51011278,"ECCENTRICITY":0.00129004,"INCLINATION":89.0072,"RA_OF_ASC_NODE":19.398,"ARG_OF_PERICENTER":293.7429,"MEAN_ANOMALY":66.2369,"EPHEMERIS_TYPE":0,"NORAD_CAT_ID":62248,"ELEMENT_SET_NO":999,"REV_AT_EPOCH":12856,"BSTAR":0.000032579148,"MEAN_MOTION_DOT":3.3e-7,"MEAN_MOTION_DDOT":0},{"OBJECT_NAME":"QIANFAN-48","OBJECT_ID":"2024-232N","EPOCH":"2026-07-17T22:21:41.985216","CLASSIFICATION_TYPE":"U","MEAN_MOTION":13.51015918,"ECCENTRICITY":0.00152023,"INCLINATION":89.0076,"RA_OF_ASC_NODE":19.4046,"ARG_OF_PERICENTER":296.09,"MEAN_ANOMALY":63.8686,"EPHEMERIS_TYPE":0,"NORAD_CAT_ID":62249,"ELEMENT_SET_NO":999,"REV_AT_EPOCH":12857,"BSTAR":0.00003202853,"MEAN_MOTION_DOT":3.2e-7,"MEAN_MOTION_DDOT":0}]}
